     3.04           N: GNSS NAV DATA    G: GPS              RINEX VERSION / TYPE
sbf2rin-15.6.1                          20230104 091026 UTC PGM / RUN BY / DATE 
GPSA   1.9558E-08  0.0000E+00 -5.9605E-08  1.1921E-07       IONOSPHERIC CORR    
GPSB   1.3926E+05 -1.9661E+05  6.5536E+04  1.3107E+05       IONOSPHERIC CORR    
    18                                                      LEAP SECONDS        
                                                            COMMENT             
ABPO                                    MARKER NAME         COMMENT
33302M001                               MARKER NUMBER       COMMENT
  4097216.5539  4429119.1897 -2065771.1988                  COMMENT
This data is provided as a public service by NASA/JPL.      COMMENT
No warranty is expressed or implied regarding suitability   COMMENT
for use.  For further information, contact:                 COMMENT
ggnops at jpl dot nasa dot gov                              COMMENT
                                                            END OF HEADER       
G14 2023 01 04 10 00 00-5.603535100818E-05 7.162270776462E-12 0.000000000000E+00
     2.350000000000E+02 7.412500000000E+01 4.369110562421E-09-2.449473344865E+00
     3.876164555550E-06 2.523817820475E-03 1.038610935211E-05 5.153664976120E+03
     2.952000000000E+05-7.450580596924E-09 2.820912010742E+00 2.235174179077E-08
     9.504627329879E-01 1.749375000000E+02-3.072772422837E+00-7.768180718765E-09
    -2.203663219990E-10 1.000000000000E+00 2.243000000000E+03 0.000000000000E+00
     2.000000000000E+00 0.000000000000E+00-7.916241884232E-09 4.910000000000E+02
     2.880180000000E+05 4.000000000000E+00
G17 2023 01 04 10 00 00 6.909766234457E-04 2.842170943040E-12 0.000000000000E+00
     9.100000000000E+01 9.537500000000E+01 4.246248301857E-09 1.118952855461E+00
     4.772096872330E-06 1.382175541949E-02 3.335997462273E-06 5.153689071655E+03
     2.952000000000E+05-1.695007085800E-07-2.387493281638E+00-2.663582563400E-07
     9.762583806459E-01 3.204062500000E+02-1.435384003631E+00-8.218556621586E-09
     2.489389407347E-10 1.000000000000E+00 2.243000000000E+03 0.000000000000E+00
     2.000000000000E+00 0.000000000000E+00-1.117587089539E-08 9.100000000000E+01
     2.880180000000E+05 4.000000000000E+00
G03 2023 01 04 09 59 44-3.738971427083E-04 1.477928890381E-12 0.000000000000E+00
     5.000000000000E+01-1.010000000000E+02 3.920520448270E-09-2.243201616271E+00
    -5.166977643967E-06 4.433873342350E-03 9.922310709953E-06 5.153750965118E+03
     2.951840000000E+05 8.381903171539E-08-3.541553084244E-01 3.725290298462E-09
     9.773012042437E-01 1.980625000000E+02 1.034162903322E+00-7.533170929664E-09
     2.432244169875E-10 1.000000000000E+00 2.243000000000E+03 0.000000000000E+00
     2.000000000000E+00 0.000000000000E+00 1.862645149231E-09 5.000000000000E+01
     2.880180000000E+05 4.000000000000E+00
G04 2023 01 04 10 00 00-5.552079528570E-05 7.503331289627E-12 0.000000000000E+00
     2.030000000000E+02 6.687500000000E+00 4.680194948905E-09 7.496960543642E-01
     3.390014171600E-07 2.252089674585E-03 7.016584277153E-06 5.153717765808E+03
     2.952000000000E+05 5.587935447693E-09 7.266301518625E-01-2.607703208923E-08
     9.621635687175E-01 2.411875000000E+02-3.090803106138E+00-7.942473693053E-09
     3.750156209059E-10 1.000000000000E+00 2.243000000000E+03 0.000000000000E+00
     2.000000000000E+00 0.000000000000E+00-4.656612873077E-09 9.710000000000E+02
     2.880180000000E+05 4.000000000000E+00
G06 2023 01 04 10 00 00 5.527734756470E-04 6.593836587854E-12 0.000000000000E+00
     3.500000000000E+01-7.756250000000E+01 4.026953453061E-09-8.190861999651E-01
    -4.237517714500E-06 2.833888633177E-03 2.427026629448E-06 5.153586229324E+03
     2.952000000000E+05-2.793967723846E-08-1.394417472708E+00-4.470348358154E-08
     9.882728382163E-01 3.477500000000E+02-8.920628867313E-01-8.040334912222E-09
    -9.250385315679E-11 1.000000000000E+00 2.243000000000E+03 0.000000000000E+00
     2.000000000000E+00 0.000000000000E+00 3.725290298462E-09 3.500000000000E+01
     2.880180000000E+05 4.000000000000E+00
G01 2023 01 04 10 00 00 2.287621609867E-04-4.888534022029E-12 0.000000000000E+00
     3.000000000000E+01-8.809375000000E+01 4.053025967657E-09-1.098405683886E+00
    -4.388391971588E-06 1.217113318853E-02 1.925975084305E-06 5.153653417587E+03
     2.952000000000E+05 2.291053533554E-07-1.386114834755E+00 2.402812242508E-07
     9.890105146577E-01 3.557812500000E+02 9.376259296664E-01-8.089622679541E-09
    -1.778645516296E-10 1.000000000000E+00 2.243000000000E+03 0.000000000000E+00
     2.000000000000E+00 0.000000000000E+00 4.656612873077E-09 3.000000000000E+01
     2.880180000000E+05 4.000000000000E+00
G09 2023 01 04 10 00 00-2.423045225441E-04 6.366462912410E-12 0.000000000000E+00
     9.500000000000E+01 7.281250000000E+00 4.750197864808E-09 1.484759572002E+00
     2.626329660416E-07 2.606797264889E-03 7.368624210358E-06 5.153690748215E+03
     2.952000000000E+05 1.303851604462E-08 6.710869252584E-01-6.891787052155E-08
     9.554055542820E-01 2.314375000000E+02 1.952256124881E+00-7.943545166255E-09
     4.332323315798E-10 1.000000000000E+00 2.243000000000E+03 0.000000000000E+00
     2.000000000000E+00 0.000000000000E+00 9.313225746155E-10 9.500000000000E+01
     2.880180000000E+05 4.000000000000E+00
G19 2023 01 04 09 59 44 2.595488913357E-04 5.115907697473E-12 0.000000000000E+00
     1.900000000000E+01 9.368750000000E+01 4.159101814713E-09-3.056984019906E+00
     4.889443516731E-06 9.033120237291E-03 2.227723598480E-06 5.153601182938E+03
     2.951840000000E+05-1.303851604462E-08-2.342840066956E+00 1.750886440277E-07
     9.752061563365E-01 3.386875000000E+02 2.225246944730E+00-7.956045686952E-09
     2.596536727606E-10 1.000000000000E+00 2.243000000000E+03 0.000000000000E+00
     2.000000000000E+00 0.000000000000E+00-1.536682248116E-08 1.900000000000E+01
     2.880180000000E+05 4.000000000000E+00
G21 2023 01 04 10 00 00 1.531816087663E-04 3.410605131648E-13 0.000000000000E+00
     8.400000000000E+01-7.343750000000E+01 4.666980112740E-09 1.100188350507E+00
    -4.351139068604E-06 2.473836380523E-02 1.788139343262E-07 5.153668973923E+03
     2.952000000000E+05 5.476176738739E-07-1.485865675584E+00-2.756714820862E-07
     9.610663172526E-01 3.746250000000E+02-8.443578888838E-01-8.454995041624E-09
    -1.675069773380E-10 1.000000000000E+00 2.243000000000E+03 0.000000000000E+00
     2.000000000000E+00 0.000000000000E+00-1.024454832077E-08 8.400000000000E+01
     2.880180000000E+05 4.000000000000E+00
G08 2023 01 04 10 00 00-1.019355840981E-04-1.818989403546E-12 0.000000000000E+00
     9.700000000000E+01 1.205000000000E+02 4.456614207299E-09 1.159230650404E+00
     6.305053830147E-06 8.083423832431E-03 3.263354301453E-06 5.153646053314E+03
     2.952000000000E+05-1.676380634308E-08-2.474302960421E+00 8.568167686462E-08
     9.608635860652E-01 3.141562500000E+02 1.853778191017E-01-8.282845013741E-09
     1.400058318049E-10 1.000000000000E+00 2.243000000000E+03 0.000000000000E+00
     2.000000000000E+00 0.000000000000E+00 5.122274160385E-09 9.700000000000E+01
     2.880180000000E+05 4.000000000000E+00
G30 2023 01 04 10 00 00-5.340692587197E-04 7.958078640513E-13 0.000000000000E+00
     8.600000000000E+01-1.553125000000E+01 5.293791936254E-09-1.835123656541E+00
    -9.555369615555E-07 6.010549608618E-03 6.180256605148E-06 5.153650756836E+03
     2.952000000000E+05 0.000000000000E+00 1.751337965479E+00-9.126961231232E-08
     9.351204001124E-01 2.454062500000E+02-2.665822551421E+00-8.204984627687E-09
    -3.607293115380E-10 1.000000000000E+00 2.243000000000E+03 0.000000000000E+00
     2.000000000000E+00 0.000000000000E+00 3.725290298462E-09 8.600000000000E+01
     2.880180000000E+05 4.000000000000E+00
G07 2023 01 04 10 00 00 2.642655745149E-04-5.911715561524E-12 0.000000000000E+00
     7.300000000000E+01-1.090625000000E+01 4.909847371994E-09-1.706179138512E+00
    -6.221234798431E-07 1.657573936973E-02 5.960464477539E-06 5.153595087051E+03
     2.952000000000E+05 2.980232238770E-07 1.743056876310E+00-1.396983861923E-07
     9.499860191880E-01 2.549375000000E+02-2.232007694822E+00-7.883542666910E-09
    -3.539433145883E-10 1.000000000000E+00 2.243000000000E+03 0.000000000000E+00
     2.000000000000E+00 0.000000000000E+00-1.117587089539E-08 7.300000000000E+01
     2.880180000000E+05 4.000000000000E+00
G14 2023 01 04 10 44 32-5.601532757282E-05 7.162270776462E-12 0.000000000000E+00
     2.360000000000E+02 7.818750000000E+01 4.333394789001E-09-2.059572563590E+00
     4.045665264130E-06 2.523478586227E-03 1.044012606144E-05 5.153665958405E+03
     2.978720000000E+05-5.401670932770E-08 2.820891409930E+00 3.539025783539E-08
     9.504621653757E-01 1.735312500000E+02-3.072938079291E+00-7.748179885650E-09
    -2.435815747217E-10 1.000000000000E+00 2.243000000000E+03 0.000000000000E+00
     2.000000000000E+00 0.000000000000E+00-7.916241884232E-09 4.920000000000E+02
     2.907180000000E+05 4.000000000000E+00
G20 2023 01 04 10 00 00 4.592314362526E-04-2.387423592154E-12 0.000000000000E+00
     5.100000000000E+01-1.034375000000E+02 4.703053043894E-09-1.401406982226E-01
    -5.319714546204E-06 4.614296485670E-03 8.540228009224E-06 5.153723316193E+03
     2.952000000000E+05 6.332993507385E-08-5.186786700085E-01 1.117587089539E-08
     9.466941711665E-01 2.083125000000E+02-2.965533634356E+00-8.072836266034E-09
     8.857511808063E-11 1.000000000000E+00 2.243000000000E+03 0.000000000000E+00
     2.800000000000E+00 0.000000000000E+00-8.381903171539E-09 5.100000000000E+01
     2.909580000000E+05 4.000000000000E+00
